STARLINK-34428          
1 64293U 25123C   26046.00605814  .00002305  00000+0  20084-3 0  9995
2 64293  69.9995 251.5300 0002105 279.7118  80.3804 14.98336399 39440
STARLINK-34388          
1 64294U 25123D   26045.98120119  .00004664  00000+0  39826-3 0  9996
2 64294  69.9992 251.8423 0002998 269.6159  90.4656 14.98342028 39432
STARLINK-34424          
1 64295U 25123E   26045.98937772 -.00004535  00000+0 -37253-3 0  9999
2 64295  69.9990 251.8669 0003211 271.6286  88.4506 14.98331472 39438
STARLINK-34443          
1 64296U 25123F   26046.16668981 -.00049121  00000+0 -41354-2 0  9990
2 64296  69.9994 251.2255 0002790 273.9448 142.2936 14.98353985  5605
STARLINK-34369          
1 64297U 25123G   26045.96866932 -.00007080  00000+0 -58628-3 0  9995
2 64297  69.9996 251.7989 0002765 265.4989  94.5854 14.98322740 38211
STARLINK-34391          
1 64298U 25123H   26045.99353853  .00003173  00000+0  27369-3 0  9997
2 64298  69.9992 251.4865 0002973 270.2170  89.8648 14.98323228 38226
STARLINK-34378          
1 64299U 25123J   26046.02290752 -.00004332  00000+0 -35547-3 0  9998
2 64299  69.9992 251.5914 0002626 269.7919  90.2939 14.98330124 38224
STARLINK-34376          
1 64300U 25123K   26046.00002314  .00044557  00000+0  37206-2 0  9998
2 64300  69.9995 251.8002 0002950 279.1245 183.2654 14.98306675  5638
STARLINK-34372          
1 64301U 25123L   26045.96434051 -.00001786  00000+0 -14194-3 0  9991
2 64301  69.9987 251.7859 0003101 268.0604  92.0200 14.98326720 38211
STARLINK-34379          
1 64302U 25123M   26045.92067718  .00033542  00000+0  76573-3 0  9992
2 64302  69.9998 226.3738 0003223 277.7276  82.3539 15.42722735 38847
STARLINK-34356          
1 64303U 25123N   26045.99772955  .00007705  00000+0  65286-3 0  9997
2 64303  70.0002 251.4987 0002885 270.1287  89.9542 14.98326586 38227
STARLINK-34360          
1 64304U 25123P   26046.16668981 -.00047251  00000+0 -39763-2 0  9993
2 64304  69.9993 251.3491 0002591 273.2934  29.5081 14.98356523  5800
STARLINK-34383          
1 64305U 25123Q   26045.99372528  .00003927  00000+0  33672-3 0  9997
2 64305  69.9992 251.8841 0002991 270.4647  89.6169 14.98331891 38214
STARLINK-34355          
1 64306U 25123R   26045.98953863 -.00004907  00000+0 -40376-3 0  9994
2 64306  69.9993 251.8720 0002930 270.3858  89.6965 14.98329179 38218
STARLINK-34380          
1 64307U 25123S   26045.98538299  .00005018  00000+0  42806-3 0  9999
2 64307  69.9997 251.8571 0002294 274.7255  85.3642 14.98332459 38219
STARLINK-34374          
1 64308U 25123T   26045.97284426 -.00002654  00000+0 -21476-3 0  9994
2 64308  69.9988 251.8096 0003251 271.9294  88.1493 14.98323722 38216
STARLINK-34370          
1 64309U 25123U   26045.96450704  .00003012  00000+0  26007-3 0  9990
2 64309  69.9990 251.7816 0002651 269.4278  90.6577 14.98336703 38210
STARLINK-34357          
1 64310U 25123V   26045.98521695  .00006399  00000+0  54353-3 0  9998
2 64310  69.9991 251.8610 0002390 261.4798  98.6090 14.98333979 38215
STARLINK-34368          
1 64311U 25123W   26045.97686471  .00002079  00000+0  18192-3 0  9994
2 64311  69.9989 251.8213 0003054 263.3727  96.7084 14.98337192 38216
STARLINK-34384          
1 64312U 25123X   26045.96851747  .00001343  00000+0  12028-3 0  9999
2 64312  69.9991 251.8009 0002618 265.7223  94.3637 14.98333901 38217
STARLINK-34358          
1 64313U 25123Y   26045.89339832 -.00007043  00000+0 -58294-3 0  9998
2 64313  69.9991 251.9380 0002600 265.2675  94.8188 14.98339076 38202
STARLINK-34354          
1 64314U 25123Z   26045.88505926  .00002215  00000+0  19331-3 0  9990
2 64314  69.9991 251.9090 0002692 271.5670  88.5181 14.98335403 38200
STARLINK-34387          
1 64315U 25123AA  26045.87671078  .00002086  00000+0  18258-3 0  9995
2 64315  69.9994 251.8812 0002671 268.9621  91.1232 14.98334861 38202
STARLINK-33590          
1 64316U 25123AB  26046.01874419  .00001764  00000+0  15557-3 0  9998
2 64316  70.0000 251.5622 0002550 273.4668  86.6199 14.98334369 38224
STARLINK-11736 [DTC]    
1 64317U 25124A   26045.37085272  .00326590  00000+0  24305-2 0  9996
2 64317  42.9984 170.0694 0001385 230.7974 129.2771 15.71030761 39164
STARLINK-11673 [DTC]    
1 64318U 25124B   26045.47678381  .00296117  00000+0  22308-2 0  9999
2 64318  42.9994 169.1328 0003751 299.9577  60.0918 15.70828403 39188
STARLINK-11671 [DTC]    
1 64319U 25124C   26045.40258352  .00263574  00000+0  19938-2 0  9991
2 64319  42.9996 169.4300 0004453 299.4302  60.6121 15.70825831 39178
STARLINK-11594 [DTC]    
1 64320U 25124D   26045.63049800  .00065361  00000+0  50899-3 0  9990
2 64320  43.0003 168.5796 0001672 288.0612  72.0073 15.70833685 39201
STARLINK-11596 [DTC]    
1 64321U 25124E   26045.36554065  .00396057  00000+0  29103-2 0  9997
2 64321  42.9976 170.0248 0001715 225.3593 134.7135 15.71125270 39164
STARLINK-11747 [DTC]    
1 64322U 25124F   26045.60926085  .00185403  00000+0  14164-2 0  9992
2 64322  42.9994 168.4071 0001574 278.7836  81.2854 15.70838863 39202
STARLINK-11728 [DTC]    
1 64323U 25124G   26045.57740818  .00298305  00000+0  22479-2 0  9991
2 64323  42.9984 168.1441 0001029 262.9651  97.1099 15.70817646 39208
STARLINK-11696 [DTC]    
1 64324U 25124H   26045.58801794  .00179955  00000+0  13711-2 0  9992
2 64324  42.9993 168.2360 0002254 301.4359  58.6288 15.70920132 39202
STARLINK-11698 [DTC]    
1 64325U 25124J   26045.46707421  .00138988  00000+0  10669-2 0  9992
2 64325  43.0003 169.0525 0002966 297.0910  62.9655 15.70875034 39185
STARLINK-11678 [DTC]    
1 64326U 25124K   26045.61456881  .00072977  00000+0  56668-3 0  9996
2 64326  43.0011 168.4528 0002781 302.6340  57.4259 15.70860699 39209
STARLINK-11674 [DTC]    
1 64327U 25124L   26045.39196191  .00231146  00000+0  17523-2 0  9998
2 64327  42.9984 169.3403 0003243 287.9276  72.1238 15.70877565 39173
STARLINK-11707 [DTC]    
1 64328U 25124M   26045.53505402  .00110892  00000+0  85498-3 0  9995
2 64328  43.0006 168.7018 0002401 282.4885  77.5714 15.70872806 39190
STARLINK-11734 [DTC]    
1 64329U 25124N   26045.76284550  .00165311  00000+0  12647-2 0  9990
2 64329  42.9979 166.9529 0000666 284.9126  75.1668 15.70870333 39231
STARLINK-34252          
1 64330U 25124P   26045.90412816  .00027541  00000+0  10065-2 0  9990
2 64330  42.9967 250.5754 0000639 344.0073  16.0758 15.27582144 38290
STARLINK-34050          
1 64331U 25124Q   26045.95920081  .00023364  00000+0  85518-3 0  9999
2 64331  43.0024 250.1250 0002792 282.1240  77.9299 15.27605249 39361
STARLINK-33782          
1 64332U 25124R   26045.94763497  .00020329  00000+0  74579-3 0  9998
2 64332  43.0036 250.0306 0001926 277.7048  82.3585 15.27598356 38301
STARLINK-34207          
1 64333U 25124S   26045.96562892  .00022590  00000+0  82730-3 0  9997
2 64333  42.9988 250.1702 0001812 269.6017  90.4627 15.27603688 38309
STARLINK-34260          
1 64334U 25124T   26045.97334405  .00021703  00000+0  79528-3 0  9992
2 64334  42.9950 250.2271 0000247 111.0286 249.0591 15.27604507 38303
STARLINK-33855          
1 64335U 25124U   26045.94378225  .00016967  00000+0  62446-3 0  9995
2 64335  43.0031 249.9975 0001826 273.7237  86.3406 15.27590644 38301
STARLINK-34223          
1 64336U 25124V   26045.93270262  .00015617  00000+0  57546-3 0  9993
2 64336  43.0034 246.4554 0001996 281.2997  78.7631 15.27600875 38342
STARLINK-34216          
1 64337U 25124W   26045.99503314  .00024886  00000+0  91029-3 0  9999
2 64337  43.0007 249.5241 0002455 277.7708  82.2865 15.27597956 38312
STARLINK-34218          
1 64338U 25124X   26045.94426666  .00016862  00000+0  62039-3 0  9993
2 64338  43.0026 246.5523 0002029 280.1342  79.9280 15.27604546 38344
STARLINK-34017          
1 64339U 25124Y   26044.97455314  .00029682  00000+0  10829-2 0  9991
2 64339  43.0046 255.6310 0002645 287.1361  72.9201 15.27605070 38152
QPS-SAR-11 (YAMATSUMI-I)
1 64340U 25125A   26045.35658919  .00006356  00000+0  51221-3 0  9998
2 64340  42.0075 148.4150 0008135  50.0877 310.0663 15.00327697 37160
STARLINK-33977          
1 64344U 25126A   26045.52452693  .00010938  00000+0  92250-3 0  9991
2 64344  70.0013  92.8053 0003346 262.4804  97.5975 14.98353849 38426
STARLINK-34426          
1 64345U 25126B   26046.18780368  .00000994  00000+0  91115-4 0  9999
2 64345  70.0028  91.1028 0002157 244.7193 115.3743 14.98324359 37313
STARLINK-34437          
1 64346U 25126C   26046.15025145  .00002325  00000+0  20259-3 0  9992
2 64346  70.0012  91.3736 0002990 272.1533  87.9284 14.98336702 37301
STARLINK-34407          
1 64347U 25126D   26046.15461698  .00011596  00000+0  97793-3 0  9997
2 64347  70.0020  91.3848 0002786 269.3878  90.6961 14.98333184 37302
STARLINK-34274          
1 64348U 25126E   26046.16695057  .00007822  00000+0  66238-3 0  9994
2 64348  70.0014  91.4316 0003027 269.1624  90.9188 14.98344552 37308
STARLINK-34301          
1 64349U 25126F   26046.12523020 -.00001916  00000+0 -15298-3 0  9991
2 64349  70.0055  91.2923 0001506 241.4324 118.6683 14.98304443 37309
STARLINK-34425          
1 64350U 25126G   26046.14607887  .00003332  00000+0  28685-3 0  9995
2 64350  70.0013  91.3556 0003224 271.4025  88.6765 14.98336959 37302
STARLINK-34389          
1 64351U 25126H   26046.16668981 -.00013458  00000+0 -11222-2 0  9990
2 64351  70.0013  91.2266 0002922 265.5480 272.2413 14.98332752  5452
STARLINK-34385          
1 64352U 25126J   26046.15860056  .00002739  00000+0  23719-3 0  9990
2 64352  70.0008  91.4017 0003146 272.0487  88.0311 14.98336288 37309
STARLINK-34431          
1 64353U 25126K   26046.18796542  .00000975  00000+0  89505-4 0  9998
2 64353  70.0040  91.1080 0002445 226.7826 133.3129 14.98327199 37310
STARLINK-34473          
1 64354U 25126L   26045.53271737  .00003297  00000+0  28396-3 0  9991
2 64354  70.0013  92.8307 0003258 268.0944  91.9842 14.98335218 37215
